[Satellite]
VERSION=1.1
NAME=INTELSAT 16 (IS-16)
NICKNAME=INTELSAT 16 (IS-16)
TLE1=1 36397U 10006A   17186.28393390 -.00000289  00000-0  00000-0 0  9995
TLE2=2 36397   0.0165 351.2008 0001977 102.8460 233.5297  1.00271016 27093
